{
  "links" : {
    "next" : "https://api.nasa.gov/neo/rest/v1/feed?start_date=2003-07-09&end_date=2003-07-09&detailed=true&api_key=t0TVs3DtDT2H8Oy2Zy8m2eVrNsAVKAexjcZXUckd",
    "prev" : "https://api.nasa.gov/neo/rest/v1/feed?start_date=2003-07-07&end_date=2003-07-07&detailed=true&api_key=t0TVs3DtDT2H8Oy2Zy8m2eVrNsAVKAexjcZXUckd",
    "self" : "https://api.nasa.gov/neo/rest/v1/feed?start_date=2003-07-08&end_date=2003-07-08&detailed=true&api_key=t0TVs3DtDT2H8Oy2Zy8m2eVrNsAVKAexjcZXUckd"
  },
  "element_count" : 2,
  "near_earth_objects" : {
    "2003-07-08" : [ {
      "links" : {
        "self" : "https://api.nasa.gov/neo/rest/v1/neo/3528338?api_key=t0TVs3DtDT2H8Oy2Zy8m2eVrNsAVKAexjcZXUckd"
      },
      "neo_reference_id" : "3528338",
      "name" : "(2010 LM14)",
      "nasa_jpl_url" : "http://ssd.jpl.nasa.gov/sbdb.cgi?sstr=3528338",
      "absolute_magnitude_h" : 21.5,
      "estimated_diameter" : {
        "kilometers" : {
          "estimated_diameter_min" : 0.1332155667,
          "estimated_diameter_max" : 0.2978790628
        },
        "meters" : {
          "estimated_diameter_min" : 133.2155666981,
          "estimated_diameter_max" : 297.8790627982
        },
        "miles" : {
          "estimated_diameter_min" : 0.0827762899,
          "estimated_diameter_max" : 0.1850934111
        },
        "feet" : {
          "estimated_diameter_min" : 437.0589598459,
          "estimated_diameter_max" : 977.2935443908
        }
      },
      "is_potentially_hazardous_asteroid" : false,
      "close_approach_data" : [ {
        "close_approach_date" : "2003-07-08",
        "epoch_date_close_approach" : 1057647600000,
        "relative_velocity" : {
          "kilometers_per_second" : "17.384548315",
          "kilometers_per_hour" : "62584.3739339017",
          "miles_per_hour" : "38887.4961257624"
        },
        "miss_distance" : {
          "astronomical" : "0.4385135539",
          "lunar" : "170.5817718506",
          "kilometers" : "65600692",
          "miles" : "40762380"
        },
        "orbiting_body" : "Earth"
      } ],
      "orbital_data" : {
        "orbit_id" : "13",
        "orbit_determination_date" : "2017-06-20 06:19:26",
        "orbit_uncertainty" : "1",
        "minimum_orbit_intersection" : ".313053",
        "jupiter_tisserand_invariant" : "5.455",
        "epoch_osculation" : "2458000.5",
        "eccentricity" : ".3793664784477458",
        "semi_major_axis" : "1.110312468405852",
        "inclination" : "25.92472031044273",
        "ascending_node_longitude" : "176.669182927554",
        "orbital_period" : "427.3328232665012",
        "perihelion_distance" : ".6890971372900999",
        "perihelion_argument" : "187.9275111629084",
        "aphelion_distance" : "1.531527799521604",
        "perihelion_time" : "2457997.710336822946",
        "mean_anomaly" : "2.350109069700449",
        "mean_motion" : ".8424347028814357",
        "equinox" : "J2000"
      }
    }, {
      "links" : {
        "self" : "https://api.nasa.gov/neo/rest/v1/neo/3684009?api_key=t0TVs3DtDT2H8Oy2Zy8m2eVrNsAVKAexjcZXUckd"
      },
      "neo_reference_id" : "3684009",
      "name" : "(2014 QS296)",
      "nasa_jpl_url" : "http://ssd.jpl.nasa.gov/sbdb.cgi?sstr=3684009",
      "absolute_magnitude_h" : 20.8,
      "estimated_diameter" : {
        "kilometers" : {
          "estimated_diameter_min" : 0.1838886721,
          "estimated_diameter_max" : 0.411187571
        },
        "meters" : {
          "estimated_diameter_min" : 183.8886720703,
          "estimated_diameter_max" : 411.1875710413
        },
        "miles" : {
          "estimated_diameter_min" : 0.1142630881,
          "estimated_diameter_max" : 0.2555000322
        },
        "feet" : {
          "estimated_diameter_min" : 603.309310875,
          "estimated_diameter_max" : 1349.040630575
        }
      },
      "is_potentially_hazardous_asteroid" : false,
      "close_approach_data" : [ {
        "close_approach_date" : "2003-07-08",
        "epoch_date_close_approach" : 1057647600000,
        "relative_velocity" : {
          "kilometers_per_second" : "9.5668595728",
          "kilometers_per_hour" : "34440.6944622532",
          "miles_per_hour" : "21400.1081785039"
        },
        "miss_distance" : {
          "astronomical" : "0.2320492492",
          "lunar" : "90.2671585083",
          "kilometers" : "34714076",
          "miles" : "21570326"
        },
        "orbiting_body" : "Earth"
      } ],
      "orbital_data" : {
        "orbit_id" : "18",
        "orbit_determination_date" : "2017-04-06 08:39:07",
        "orbit_uncertainty" : "3",
        "minimum_orbit_intersection" : ".0731788",
        "jupiter_tisserand_invariant" : "4.758",
        "epoch_osculation" : "2458000.5",
        "eccentricity" : ".4427835979827476",
        "semi_major_axis" : "1.350594810676188",
        "inclination" : "7.710385128656684",
        "ascending_node_longitude" : "16.74085273988531",
        "orbital_period" : "573.3054125504308",
        "perihelion_distance" : ".7525735809881579",
        "perihelion_argument" : "222.0526077265961",
        "aphelion_distance" : "1.948616040364219",
        "perihelion_time" : "2457956.696729966002",
        "mean_anomaly" : "27.50571836063429",
        "mean_motion" : ".6279375567003436",
        "equinox" : "J2000"
      }
    } ]
  }
}